{
  "links" : {
    "next" : "https://api.nasa.gov/neo/rest/v1/feed?start_date=2012-02-16&end_date=2012-02-16&detailed=true&api_key=t0TVs3DtDT2H8Oy2Zy8m2eVrNsAVKAexjcZXUckd",
    "prev" : "https://api.nasa.gov/neo/rest/v1/feed?start_date=2012-02-14&end_date=2012-02-14&detailed=true&api_key=t0TVs3DtDT2H8Oy2Zy8m2eVrNsAVKAexjcZXUckd",
    "self" : "https://api.nasa.gov/neo/rest/v1/feed?start_date=2012-02-15&end_date=2012-02-15&detailed=true&api_key=t0TVs3DtDT2H8Oy2Zy8m2eVrNsAVKAexjcZXUckd"
  },
  "element_count" : 7,
  "near_earth_objects" : {
    "2012-02-15" : [ {
      "links" : {
        "self" : "https://api.nasa.gov/neo/rest/v1/neo/2138359?api_key=t0TVs3DtDT2H8Oy2Zy8m2eVrNsAVKAexjcZXUckd"
      },
      "neo_reference_id" : "2138359",
      "name" : "138359 (2000 GX127)",
      "nasa_jpl_url" : "http://ssd.jpl.nasa.gov/sbdb.cgi?sstr=2138359",
      "absolute_magnitude_h" : 17.9,
      "estimated_diameter" : {
        "kilometers" : {
          "estimated_diameter_min" : 0.6991252322,
          "estimated_diameter_max" : 1.5632915441
        },
        "meters" : {
          "estimated_diameter_min" : 699.1252322458,
          "estimated_diameter_max" : 1563.2915440869
        },
        "miles" : {
          "estimated_diameter_min" : 0.4344161447,
          "estimated_diameter_max" : 0.97138403
        },
        "feet" : {
          "estimated_diameter_min" : 2293.7180269613,
          "estimated_diameter_max" : 5128.9094295021
        }
      },
      "is_potentially_hazardous_asteroid" : false,
      "close_approach_data" : [ {
        "close_approach_date" : "2012-02-15",
        "epoch_date_close_approach" : 1329292800000,
        "relative_velocity" : {
          "kilometers_per_second" : "16.7169582902",
          "kilometers_per_hour" : "60181.0498447898",
          "miles_per_hour" : "37394.1639993918"
        },
        "miss_distance" : {
          "astronomical" : "0.4000648947",
          "lunar" : "155.6252441406",
          "kilometers" : "59848856",
          "miles" : "37188356"
        },
        "orbiting_body" : "Earth"
      } ],
      "orbital_data" : {
        "orbit_id" : "97",
        "orbit_determination_date" : "2017-05-29 06:18:47",
        "orbit_uncertainty" : "0",
        "minimum_orbit_intersection" : ".26094",
        "jupiter_tisserand_invariant" : "5.378",
        "epoch_osculation" : "2458000.5",
        "eccentricity" : ".3613507160217593",
        "semi_major_axis" : "1.141386029030273",
        "inclination" : "20.24190252323941",
        "ascending_node_longitude" : "44.00659780611721",
        "orbital_period" : "445.3969670494678",
        "perihelion_distance" : ".7289453701829512",
        "perihelion_argument" : "4.702908470792193",
        "aphelion_distance" : "1.553826687877595",
        "perihelion_time" : "2458143.726148658876",
        "mean_anomaly" : "244.2349245017006",
        "mean_motion" : ".8082677400899696",
        "equinox" : "J2000"
      }
    }, {
      "links" : {
        "self" : "https://api.nasa.gov/neo/rest/v1/neo/2456537?api_key=t0TVs3DtDT2H8Oy2Zy8m2eVrNsAVKAexjcZXUckd"
      },
      "neo_reference_id" : "2456537",
      "name" : "456537 (2007 BG)",
      "nasa_jpl_url" : "http://ssd.jpl.nasa.gov/sbdb.cgi?sstr=2456537",
      "absolute_magnitude_h" : 19.5,
      "estimated_diameter" : {
        "kilometers" : {
          "estimated_diameter_min" : 0.3346223745,
          "estimated_diameter_max" : 0.7482383761
        },
        "meters" : {
          "estimated_diameter_min" : 334.6223744549,
          "estimated_diameter_max" : 748.2383760735
        },
        "miles" : {
          "estimated_diameter_min" : 0.2079246394,
          "estimated_diameter_max" : 0.464933628
        },
        "feet" : {
          "estimated_diameter_min" : 1097.8424710066,
          "estimated_diameter_max" : 2454.8503937571
        }
      },
      "is_potentially_hazardous_asteroid" : false,
      "close_approach_data" : [ {
        "close_approach_date" : "2012-02-15",
        "epoch_date_close_approach" : 1329292800000,
        "relative_velocity" : {
          "kilometers_per_second" : "22.1670671573",
          "kilometers_per_hour" : "79801.4417663171",
          "miles_per_hour" : "49585.5125241874"
        },
        "miss_distance" : {
          "astronomical" : "0.3987727508",
          "lunar" : "155.1226043701",
          "kilometers" : "59655556",
          "miles" : "37068244"
        },
        "orbiting_body" : "Earth"
      } ],
      "orbital_data" : {
        "orbit_id" : "50",
        "orbit_determination_date" : "2017-04-06 09:19:54",
        "orbit_uncertainty" : "0",
        "minimum_orbit_intersection" : ".0509188",
        "jupiter_tisserand_invariant" : "7.329",
        "epoch_osculation" : "2458000.5",
        "eccentricity" : ".3307103964895309",
        "semi_major_axis" : ".786817491897796",
        "inclination" : "12.73910170835422",
        "ascending_node_longitude" : "168.348679981834",
        "orbital_period" : "254.9232438944201",
        "perihelion_distance" : ".5266087671873776",
        "perihelion_argument" : "133.3488345158011",
        "aphelion_distance" : "1.047026216608214",
        "perihelion_time" : "2458081.751751363544",
        "mean_anomaly" : "245.2571070255552",
        "mean_motion" : "1.412189781129174",
        "equinox" : "J2000"
      }
    }, {
      "links" : {
        "self" : "https://api.nasa.gov/neo/rest/v1/neo/3250168?api_key=t0TVs3DtDT2H8Oy2Zy8m2eVrNsAVKAexjcZXUckd"
      },
      "neo_reference_id" : "3250168",
      "name" : "(2004 QJ7)",
      "nasa_jpl_url" : "http://ssd.jpl.nasa.gov/sbdb.cgi?sstr=3250168",
      "absolute_magnitude_h" : 18.5,
      "estimated_diameter" : {
        "kilometers" : {
          "estimated_diameter_min" : 0.5303407233,
          "estimated_diameter_max" : 1.1858779086
        },
        "meters" : {
          "estimated_diameter_min" : 530.3407233187,
          "estimated_diameter_max" : 1185.8779085771
        },
        "miles" : {
          "estimated_diameter_min" : 0.3295383456,
          "estimated_diameter_max" : 0.7368701419
        },
        "feet" : {
          "estimated_diameter_min" : 1739.963058693,
          "estimated_diameter_max" : 3890.675677576
        }
      },
      "is_potentially_hazardous_asteroid" : false,
      "close_approach_data" : [ {
        "close_approach_date" : "2012-02-15",
        "epoch_date_close_approach" : 1329292800000,
        "relative_velocity" : {
          "kilometers_per_second" : "8.5995111346",
          "kilometers_per_hour" : "30958.2400846214",
          "miles_per_hour" : "19236.2464570249"
        },
        "miss_distance" : {
          "astronomical" : "0.2499152803",
          "lunar" : "97.217048645",
          "kilometers" : "37386796",
          "miles" : "23231078"
        },
        "orbiting_body" : "Earth"
      } ],
      "orbital_data" : {
        "orbit_id" : "83",
        "orbit_determination_date" : "2017-04-06 09:12:26",
        "orbit_uncertainty" : "0",
        "minimum_orbit_intersection" : ".091726",
        "jupiter_tisserand_invariant" : "4.566",
        "epoch_osculation" : "2458000.5",
        "eccentricity" : ".3301655792137263",
        "semi_major_axis" : "1.44407781320863",
        "inclination" : "14.51111858470625",
        "ascending_node_longitude" : "25.58638121177283",
        "orbital_period" : "633.8468263713449",
        "perihelion_distance" : ".9672930255809117",
        "perihelion_argument" : "63.488961039",
        "aphelion_distance" : "1.920862600836349",
        "perihelion_time" : "2457825.420620074790",
        "mean_anomaly" : "99.43818309212438",
        "mean_motion" : ".5679605624294641",
        "equinox" : "J2000"
      }
    } ]
  }
}